[{"OBJECT_NAME":"HELIOS 1B","OBJECT_ID":"1999-064A","EPOCH":"2026-03-22T05:22:15.179520","MEAN_MOTION":14.87745207,"ECCENTRICITY":0.00021068,"INCLINATION":98.1681,"RA_OF_ASC_NODE":343.8347,"ARG_OF_PERICENTER":57.6164,"MEAN_ANOMALY":302.5255,"EPHEMERIS_TYPE":0,"CLASSIFICATION_TYPE":"U","NORAD_CAT_ID":25977,"ELEMENT_SET_NO":999,"REV_AT_EPOCH":68712,"BSTAR":0.00019546408,"MEAN_MOTION_DOT":1.724e-5,"MEAN_MOTION_DDOT":0},{"OBJECT_NAME":"TERRA","OBJECT_ID":"1999-068A","EPOCH":"2026-03-22T06:01:05.160288","MEAN_MOTION":14.61027505,"ECCENTRICITY":0.00033778,"INCLINATION":97.9567,"RA_OF_ASC_NODE":134.204,"ARG_OF_PERICENTER":124.6822,"MEAN_ANOMALY":309.7981,"EPHEMERIS_TYPE":0,"CLASSIFICATION_TYPE":"U","NORAD_CAT_ID":25994,"ELEMENT_SET_NO":999,"REV_AT_EPOCH":39691,"BSTAR":0.0001034678,"MEAN_MOTION_DOT":4.63e-6,"MEAN_MOTION_DDOT":0},{"OBJECT_NAME":"SL-16 R/B","OBJECT_ID":"2000-006B","EPOCH":"2026-03-22T05:38:38.055552","MEAN_MOTION":14.15823732,"ECCENTRICITY":0.00161136,"INCLINATION":71.0007,"RA_OF_ASC_NODE":71.4557,"ARG_OF_PERICENTER":170.4422,"MEAN_ANOMALY":189.7011,"EPHEMERIS_TYPE":0,"CLASSIFICATION_TYPE":"U","NORAD_CAT_ID":26070,"ELEMENT_SET_NO":999,"REV_AT_EPOCH":35033,"BSTAR":4.1741547e-5,"MEAN_MOTION_DOT":3.4e-7,"MEAN_MOTION_DDOT":0},{"OBJECT_NAME":"TITAN 4B R/B","OBJECT_ID":"2000-047B","EPOCH":"2026-03-22T02:04:15.037824","MEAN_MOTION":15.09676421,"ECCENTRICITY":0.00393918,"INCLINATION":67.9919,"RA_OF_ASC_NODE":5.6496,"ARG_OF_PERICENTER":20.8459,"MEAN_ANOMALY":339.4285,"EPHEMERIS_TYPE":0,"CLASSIFICATION_TYPE":"U","NORAD_CAT_ID":26474,"ELEMENT_SET_NO":999,"REV_AT_EPOCH":39478,"BSTAR":0.00033241507,"MEAN_MOTION_DOT":5.331e-5,"MEAN_MOTION_DDOT":0},{"OBJECT_NAME":"ENVISAT","OBJECT_ID":"2002-009A","EPOCH":"2026-03-21T20:10:19.505856","MEAN_MOTION":14.3904105,"ECCENTRICITY":0.00012711,"INCLINATION":98.3749,"RA_OF_ASC_NODE":34.15,"ARG_OF_PERICENTER":81.8976,"MEAN_ANOMALY":292.7223,"EPHEMERIS_TYPE":0,"CLASSIFICATION_TYPE":"U","NORAD_CAT_ID":27386,"ELEMENT_SET_NO":999,"REV_AT_EPOCH":26092,"BSTAR":5.1856841e-5,"MEAN_MOTION_DOT":1.17e-6,"MEAN_MOTION_DDOT":0},{"OBJECT_NAME":"IDEFIX & ARIANE 42P R/B","OBJECT_ID":"2002-021B","EPOCH":"2026-03-21T22:35:52.581984","MEAN_MOTION":14.31034007,"ECCENTRICITY":0.00122833,"INCLINATION":98.5884,"RA_OF_ASC_NODE":19.4023,"ARG_OF_PERICENTER":146.5907,"MEAN_ANOMALY":213.6054,"EPHEMERIS_TYPE":0,"CLASSIFICATION_TYPE":"U","NORAD_CAT_ID":27422,"ELEMENT_SET_NO":999,"REV_AT_EPOCH":24577,"BSTAR":0.00011370094,"MEAN_MOTION_DOT":2.56e-6,"MEAN_MOTION_DDOT":0},{"OBJECT_NAME":"AQUA","OBJECT_ID":"2002-022A","EPOCH":"2026-03-22T05:00:02.183040","MEAN_MOTION":14.62004776,"ECCENTRICITY":8.766e-5,"INCLINATION":98.4196,"RA_OF_ASC_NODE":48.8033,"ARG_OF_PERICENTER":115.6506,"MEAN_ANOMALY":301.4365,"EPHEMERIS_TYPE":0,"CLASSIFICATION_TYPE":"U","NORAD_CAT_ID":27424,"ELEMENT_SET_NO":999,"REV_AT_EPOCH":27056,"BSTAR":0.00021100414,"MEAN_MOTION_DOT":1.009e-5,"MEAN_MOTION_DDOT":0},{"OBJECT_NAME":"CZ-4B R/B","OBJECT_ID":"2002-024C","EPOCH":"2026-03-22T02:22:27.355872","MEAN_MOTION":14.14549853,"ECCENTRICITY":0.00498377,"INCLINATION":98.8811,"RA_OF_ASC_NODE":134.4416,"ARG_OF_PERICENTER":349.0043,"MEAN_ANOMALY":80.279,"EPHEMERIS_TYPE":0,"CLASSIFICATION_TYPE":"U","NORAD_CAT_ID":27432,"ELEMENT_SET_NO":999,"REV_AT_EPOCH":23099,"BSTAR":4.0453687e-5,"MEAN_MOTION_DOT":3.4e-7,"MEAN_MOTION_DDOT":0},{"OBJECT_NAME":"MIDORI II (ADEOS-II)","OBJECT_ID":"2002-056A","EPOCH":"2026-03-22T02:59:16.801728","MEAN_MOTION":14.29294071,"ECCENTRICITY":0.00010679,"INCLINATION":98.7791,"RA_OF_ASC_NODE":39.6897,"ARG_OF_PERICENTER":27.329,"MEAN_ANOMALY":332.7948,"EPHEMERIS_TYPE":0,"CLASSIFICATION_TYPE":"U","NORAD_CAT_ID":27597,"ELEMENT_SET_NO":999,"REV_AT_EPOCH":21207,"BSTAR":0.00013224429,"MEAN_MOTION_DOT":2.91e-6,"MEAN_MOTION_DDOT":0},{"OBJECT_NAME":"H-2A R/B","OBJECT_ID":"2002-056E","EPOCH":"2026-03-22T02:52:21.388800","MEAN_MOTION":14.33768521,"ECCENTRICITY":0.00711581,"INCLINATION":98.3225,"RA_OF_ASC_NODE":41.0136,"ARG_OF_PERICENTER":123.973,"MEAN_ANOMALY":247.2376,"EPHEMERIS_TYPE":0,"CLASSIFICATION_TYPE":"U","NORAD_CAT_ID":27601,"ELEMENT_SET_NO":999,"REV_AT_EPOCH":21589,"BSTAR":0.0001086968,"MEAN_MOTION_DOT":2.7e-6,"MEAN_MOTION_DDOT":0},{"OBJECT_NAME":"CZ-4B R/B","OBJECT_ID":"2003-049C","EPOCH":"2026-03-22T05:50:01.546080","MEAN_MOTION":14.55031198,"ECCENTRICITY":0.00478738,"INCLINATION":98.6891,"RA_OF_ASC_NODE":76.6416,"ARG_OF_PERICENTER":192.0668,"MEAN_ANOMALY":167.9385,"EPHEMERIS_TYPE":0,"CLASSIFICATION_TYPE":"U","NORAD_CAT_ID":28059,"ELEMENT_SET_NO":999,"REV_AT_EPOCH":18842,"BSTAR":9.3790709e-5,"MEAN_MOTION_DOT":3.59e-6,"MEAN_MOTION_DDOT":0},{"OBJECT_NAME":"CZ-2C R/B","OBJECT_ID":"2004-012C","EPOCH":"2026-03-22T01:48:37.093248","MEAN_MOTION":15.6596714,"ECCENTRICITY":0.00129728,"INCLINATION":97.7186,"RA_OF_ASC_NODE":147.553,"ARG_OF_PERICENTER":258.7489,"MEAN_ANOMALY":101.2313,"EPHEMERIS_TYPE":0,"CLASSIFICATION_TYPE":"U","NORAD_CAT_ID":28222,"ELEMENT_SET_NO":999,"REV_AT_EPOCH":20621,"BSTAR":0.00067849359,"MEAN_MOTION_DOT":0.00069765,"MEAN_MOTION_DDOT":0},{"OBJECT_NAME":"SL-16 R/B","OBJECT_ID":"2004-021B","EPOCH":"2026-03-22T01:03:09.929088","MEAN_MOTION":14.14593327,"ECCENTRICITY":0.00046498,"INCLINATION":71,"RA_OF_ASC_NODE":206.5659,"ARG_OF_PERICENTER":354.4148,"MEAN_ANOMALY":5.6922,"EPHEMERIS_TYPE":0,"CLASSIFICATION_TYPE":"U","NORAD_CAT_ID":28353,"ELEMENT_SET_NO":999,"REV_AT_EPOCH":12458,"BSTAR":-2.6428415e-5,"MEAN_MOTION_DOT":-9.8e-7,"MEAN_MOTION_DDOT":0},{"OBJECT_NAME":"CZ-4B R/B","OBJECT_ID":"2004-035C","EPOCH":"2026-03-22T01:55:53.071968","MEAN_MOTION":15.2926969,"ECCENTRICITY":0.00300918,"INCLINATION":97.3474,"RA_OF_ASC_NODE":115.1746,"ARG_OF_PERICENTER":285.3909,"MEAN_ANOMALY":74.4008,"EPHEMERIS_TYPE":0,"CLASSIFICATION_TYPE":"U","NORAD_CAT_ID":28415,"ELEMENT_SET_NO":999,"REV_AT_EPOCH":18180,"BSTAR":0.00037391628,"MEAN_MOTION_DOT":0.00010689,"MEAN_MOTION_DDOT":0},{"OBJECT_NAME":"CZ-2C R/B","OBJECT_ID":"2004-046B","EPOCH":"2026-03-22T05:55:53.496480","MEAN_MOTION":14.26996214,"ECCENTRICITY":0.0140457,"INCLINATION":98.1979,"RA_OF_ASC_NODE":355.449,"ARG_OF_PERICENTER":117.5135,"MEAN_ANOMALY":244.0402,"EPHEMERIS_TYPE":0,"CLASSIFICATION_TYPE":"U","NORAD_CAT_ID":28480,"ELEMENT_SET_NO":999,"REV_AT_EPOCH":11029,"BSTAR":6.5144046e-5,"MEAN_MOTION_DOT":1.36e-6,"MEAN_MOTION_DDOT":0},{"OBJECT_NAME":"ARIANE 5 R/B","OBJECT_ID":"2004-049H","EPOCH":"2026-03-22T05:31:49.121760","MEAN_MOTION":14.85287451,"ECCENTRICITY":0.00831368,"INCLINATION":98.2646,"RA_OF_ASC_NODE":250.1586,"ARG_OF_PERICENTER":310.9914,"MEAN_ANOMALY":48.4129,"EPHEMERIS_TYPE":0,"CLASSIFICATION_TYPE":"U","NORAD_CAT_ID":28499,"ELEMENT_SET_NO":999,"REV_AT_EPOCH":14765,"BSTAR":9.3091073e-5,"MEAN_MOTION_DOT":7.84e-6,"MEAN_MOTION_DDOT":0},{"OBJECT_NAME":"CZ-2D R/B","OBJECT_ID":"2005-024B","EPOCH":"2026-03-21T18:19:05.776320","MEAN_MOTION":15.61200388,"ECCENTRICITY":0.00037194,"INCLINATION":97.3584,"RA_OF_ASC_NODE":96.3614,"ARG_OF_PERICENTER":11.2669,"MEAN_ANOMALY":348.8671,"EPHEMERIS_TYPE":0,"CLASSIFICATION_TYPE":"U","NORAD_CAT_ID":28738,"ELEMENT_SET_NO":999,"REV_AT_EPOCH":14166,"BSTAR":0.00069650626,"MEAN_MOTION_DOT":0.00059126,"MEAN_MOTION_DDOT":0}]
