TLE2=2 28499  98.2646 250.1586 0083136 310.9914  48.4129 14.85287451147650
TLE2=2 28480  98.1979 355.4490 0140457 117.5135 244.0402 14.26996214110294
TLE2=2 25994  97.9567 134.2040 0003377 124.6822 309.7981 14.61027505396919
TLE2=2 26070  71.0007  71.4557 0016113 170.4422 189.7011 14.15823732350330
TLE2=2 27386  98.3749  34.1500 0001271  81.8976 292.7223 14.39041050260924
TLE2=2 27432  98.8811 134.4416 0049837 349.0043  80.2790 14.14549853230995
TLE2=2 28222  97.7186 147.5530 0012972 258.7489 101.2313 15.65967140206211
TLE2=2 25977  98.1681 343.8347 0002106  57.6164 302.5255 14.87745207687126
TLE2=2 27422  98.5884  19.4023 0012283 146.5907 213.6054 14.31034007245777
TLE2=2 26474  67.9919   5.6496 0039391  20.8459 339.4285 15.09676421394785
TLE2=2 28059  98.6891  76.6416 0047873 192.0668 167.9385 14.55031198188427
TLE2=2 27424  98.4196  48.8033 0000876 115.6506 301.4365 14.62004776270568
TLE2=2 28738  97.3584  96.3614 0003719  11.2669 348.8671 15.61200388141669
TLE2=2 27597  98.7791  39.6897 0001067  27.3290 332.7948 14.29294071212079
TLE2=2 28415  97.3474 115.1746 0030091 285.3909  74.4008 15.29269690181800
TLE2=2 27601  98.3225  41.0136 0071158 123.9730 247.2376 14.33768521215895
TLE2=2 28353  71.0000 206.5659 0004649 354.4148   5.6922 14.14593327124589
